{
  "type": "FeatureCollection",
  "features": [
    {
      "type": "Feature",
      "properties": {
        "norad_id": 54259,
        "name": "EUTELSAT 10B",
        "group": "eutelsat",
        "lat": -0.0379439881553516,
        "lon": -55.46436494119718,
        "alt_km": 35789.70483493081,
        "timestamp": "2025-12-06T14:35:36.798933+00:00",
        "meta_object_name": "EUTELSAT 10B",
        "meta_object_id": "2022-157A",
        "meta_epoch": "2025-12-06T06:51:51.163776",
        "meta_mean_motion": 1.00267264,
        "meta_eccentricity": 0.00010794,
        "meta_inclination": 0.0619,
        "meta_ra_of_asc_node": 103.5908,
        "meta_arg_of_pericenter": 79.1281,
        "meta_mean_anomaly": 5.5652,
        "meta_ephemeris_type": 0,
        "meta_classification_type": "U",
        "meta_norad_cat_id": 54259,
        "meta_element_set_no": 999,
        "meta_rev_at_epoch": 1109,
        "meta_bstar": 0,
        "meta_mean_motion_dot": 7.6e-07,
        "meta_mean_motion_ddot": 0,
        "tle_line1": "1 54259U 22157A   25340.28600884  .00000076  00000+0  00000+0 0  9993",
        "tle_line2": "2 54259   0.0619 103.5908 0001079  79.1281   5.5652  1.00267264 11096"
      },
      "geometry": {
        "type": "Point",
        "coordinates": [
          -55.46436494119718,
          -0.0379439881553516
        ]
      }
    },
    {
      "type": "Feature",
      "properties": {
        "norad_id": 59346,
        "name": "EUTELSAT 36D",
        "group": "eutelsat",
        "lat": -0.011072798321362563,
        "lon": -29.595499633409748,
        "alt_km": 35782.64678149012,
        "timestamp": "2025-12-06T14:35:36.798946+00:00",
        "meta_object_name": "EUTELSAT 36D",
        "meta_object_id": "2024-059A",
        "meta_epoch": "2025-12-05T21:12:21.661920",
        "meta_mean_motion": 1.00272563,
        "meta_eccentricity": 7.535e-05,
        "meta_inclination": 0.0214,
        "meta_ra_of_asc_node": 349.7189,
        "meta_arg_of_pericenter": 331.5769,
        "meta_mean_anomaly": 107.5891,
        "meta_ephemeris_type": 0,
        "meta_classification_type": "U",
        "meta_norad_cat_id": 59346,
        "meta_element_set_no": 999,
        "meta_rev_at_epoch": 620,
        "meta_bstar": 0,
        "meta_mean_motion_dot": 0,
        "meta_mean_motion_ddot": 0,
        "tle_line1": "1 59346U 24059A   25339.88358405  .00000000  00000+0  00000+0 0  9998",
        "tle_line2": "2 59346   0.0214 349.7189 0000753 331.5769 107.5891  1.00272563  6201"
      },
      "geometry": {
        "type": "Point",
        "coordinates": [
          -29.595499633409748,
          -0.011072798321362563
        ]
      }
    }
  ]
}